<?xml version="1.0" encoding="UTF-8"?>
<ndm xmlns:xsi="http://www.w3.org/2001/XMLSchema-instance" xsi:noNamespaceSchemaLocation="https://sanaregistry.org/r/ndmxml_unqualified/ndmxml-2.0.0-master-2.0.xsd">
<omm id="CCSDS_OMM_VERS" version="2.0">
<header><CREATION_DATE/><ORIGINATOR/></header><body><segment><metadata><OBJECT_NAME>KUIPER-00152</OBJECT_NAME><OBJECT_ID>2025-217L</OBJECT_ID><CENTER_NAME>EARTH</CENTER_NAME><REF_FRAME>TEME</REF_FRAME><TIME_SYSTEM>UTC</TIME_SYSTEM><MEAN_ELEMENT_THEORY>SGP4</MEAN_ELEMENT_THEORY></metadata><data><meanElements><EPOCH>2025-10-07T16:00:03.000096</EPOCH><MEAN_MOTION>15.36809827</MEAN_MOTION><ECCENTRICITY>.0002432</ECCENTRICITY><INCLINATION>51.8750</INCLINATION><RA_OF_ASC_NODE>23.6584</RA_OF_ASC_NODE><ARG_OF_PERICENTER>60.9414</ARG_OF_PERICENTER><MEAN_ANOMALY>302.8040</MEAN_ANOMALY></meanElements><tleParameters><EPHEMERIS_TYPE>0</EPHEMERIS_TYPE><CLASSIFICATION_TYPE>U</CLASSIFICATION_TYPE><NORAD_CAT_ID>65772</NORAD_CAT_ID><ELEMENT_SET_NO>999</ELEMENT_SET_NO><REV_AT_EPOCH>275</REV_AT_EPOCH><BSTAR>.17573E-2</BSTAR><MEAN_MOTION_DOT>.64364E-3</MEAN_MOTION_DOT><MEAN_MOTION_DDOT>0</MEAN_MOTION_DDOT></tleParameters></data></segment></body></omm>
<omm id="CCSDS_OMM_VERS" version="2.0">
<header><CREATION_DATE/><ORIGINATOR/></header><body><segment><metadata><OBJECT_NAME>KUIPER-00153</OBJECT_NAME><OBJECT_ID>2025-217M</OBJECT_ID><CENTER_NAME>EARTH</CENTER_NAME><REF_FRAME>TEME</REF_FRAME><TIME_SYSTEM>UTC</TIME_SYSTEM><MEAN_ELEMENT_THEORY>SGP4</MEAN_ELEMENT_THEORY></metadata><data><meanElements><EPOCH>2025-10-07T16:00:03.000096</EPOCH><MEAN_MOTION>15.34528840</MEAN_MOTION><ECCENTRICITY>.0009025</ECCENTRICITY><INCLINATION>51.8664</INCLINATION><RA_OF_ASC_NODE>23.8617</RA_OF_ASC_NODE><ARG_OF_PERICENTER>147.0985</ARG_OF_PERICENTER><MEAN_ANOMALY>121.0280</MEAN_ANOMALY></meanElements><tleParameters><EPHEMERIS_TYPE>0</EPHEMERIS_TYPE><CLASSIFICATION_TYPE>U</CLASSIFICATION_TYPE><NORAD_CAT_ID>65773</NORAD_CAT_ID><ELEMENT_SET_NO>999</ELEMENT_SET_NO><REV_AT_EPOCH>287</REV_AT_EPOCH><BSTAR>.18904E-2</BSTAR><MEAN_MOTION_DOT>.64439E-3</MEAN_MOTION_DOT><MEAN_MOTION_DDOT>0</MEAN_MOTION_DDOT></tleParameters></data></segment></body></omm>
<omm id="CCSDS_OMM_VERS" version="2.0">
<header><CREATION_DATE/><ORIGINATOR/></header><body><segment><metadata><OBJECT_NAME>KUIPER-00155</OBJECT_NAME><OBJECT_ID>2025-217N</OBJECT_ID><CENTER_NAME>EARTH</CENTER_NAME><REF_FRAME>TEME</REF_FRAME><TIME_SYSTEM>UTC</TIME_SYSTEM><MEAN_ELEMENT_THEORY>SGP4</MEAN_ELEMENT_THEORY></metadata><data><meanElements><EPOCH>2025-10-07T16:00:03.000096</EPOCH><MEAN_MOTION>15.35341435</MEAN_MOTION><ECCENTRICITY>.000593</ECCENTRICITY><INCLINATION>51.8692</INCLINATION><RA_OF_ASC_NODE>23.7973</RA_OF_ASC_NODE><ARG_OF_PERICENTER>135.9266</ARG_OF_PERICENTER><MEAN_ANOMALY>164.5322</MEAN_ANOMALY></meanElements><tleParameters><EPHEMERIS_TYPE>0</EPHEMERIS_TYPE><CLASSIFICATION_TYPE>U</CLASSIFICATION_TYPE><NORAD_CAT_ID>65774</NORAD_CAT_ID><ELEMENT_SET_NO>999</ELEMENT_SET_NO><REV_AT_EPOCH>145</REV_AT_EPOCH><BSTAR>.20443E-2</BSTAR><MEAN_MOTION_DOT>.71574E-3</MEAN_MOTION_DOT><MEAN_MOTION_DDOT>0</MEAN_MOTION_DDOT></tleParameters></data></segment></body></omm>
<omm id="CCSDS_OMM_VERS" version="2.0">
<header><CREATION_DATE/><ORIGINATOR/></header><body><segment><metadata><OBJECT_NAME>KUIPER-00156</OBJECT_NAME><OBJECT_ID>2025-217P</OBJECT_ID><CENTER_NAME>EARTH</CENTER_NAME><REF_FRAME>TEME</REF_FRAME><TIME_SYSTEM>UTC</TIME_SYSTEM><MEAN_ELEMENT_THEORY>SGP4</MEAN_ELEMENT_THEORY></metadata><data><meanElements><EPOCH>2025-10-07T16:00:03.000096</EPOCH><MEAN_MOTION>15.36485005</MEAN_MOTION><ECCENTRICITY>.0002709</ECCENTRICITY><INCLINATION>51.8751</INCLINATION><RA_OF_ASC_NODE>23.6888</RA_OF_ASC_NODE><ARG_OF_PERICENTER>88.3817</ARG_OF_PERICENTER><MEAN_ANOMALY>262.0397</MEAN_ANOMALY></meanElements><tleParameters><EPHEMERIS_TYPE>0</EPHEMERIS_TYPE><CLASSIFICATION_TYPE>U</CLASSIFICATION_TYPE><NORAD_CAT_ID>65775</NORAD_CAT_ID><ELEMENT_SET_NO>999</ELEMENT_SET_NO><REV_AT_EPOCH>275</REV_AT_EPOCH><BSTAR>.16904E-2</BSTAR><MEAN_MOTION_DOT>.61227E-3</MEAN_MOTION_DOT><MEAN_MOTION_DDOT>0</MEAN_MOTION_DDOT></tleParameters></data></segment></body></omm>
<omm id="CCSDS_OMM_VERS" version="2.0">
<header><CREATION_DATE/><ORIGINATOR/></header><body><segment><metadata><OBJECT_NAME>KUIPER-00158</OBJECT_NAME><OBJECT_ID>2025-217Q</OBJECT_ID><CENTER_NAME>EARTH</CENTER_NAME><REF_FRAME>TEME</REF_FRAME><TIME_SYSTEM>UTC</TIME_SYSTEM><MEAN_ELEMENT_THEORY>SGP4</MEAN_ELEMENT_THEORY></metadata><data><meanElements><EPOCH>2025-10-07T16:00:03.000096</EPOCH><MEAN_MOTION>15.35573848</MEAN_MOTION><ECCENTRICITY>.0005644</ECCENTRICITY><INCLINATION>51.8730</INCLINATION><RA_OF_ASC_NODE>23.7772</RA_OF_ASC_NODE><ARG_OF_PERICENTER>131.6671</ARG_OF_PERICENTER><MEAN_ANOMALY>178.0963</MEAN_ANOMALY></meanElements><tleParameters><EPHEMERIS_TYPE>0</EPHEMERIS_TYPE><CLASSIFICATION_TYPE>U</CLASSIFICATION_TYPE><NORAD_CAT_ID>65776</NORAD_CAT_ID><ELEMENT_SET_NO>999</ELEMENT_SET_NO><REV_AT_EPOCH>130</REV_AT_EPOCH><BSTAR>.17879E-2</BSTAR><MEAN_MOTION_DOT>.62942E-3</MEAN_MOTION_DOT><MEAN_MOTION_DDOT>0</MEAN_MOTION_DDOT></tleParameters></data></segment></body></omm>
<omm id="CCSDS_OMM_VERS" version="2.0">
<header><CREATION_DATE/><ORIGINATOR/></header><body><segment><metadata><OBJECT_NAME>KUIPER-00163</OBJECT_NAME><OBJECT_ID>2025-217R</OBJECT_ID><CENTER_NAME>EARTH</CENTER_NAME><REF_FRAME>TEME</REF_FRAME><TIME_SYSTEM>UTC</TIME_SYSTEM><MEAN_ELEMENT_THEORY>SGP4</MEAN_ELEMENT_THEORY></metadata><data><meanElements><EPOCH>2025-10-07T16:00:03.000096</EPOCH><MEAN_MOTION>15.34746431</MEAN_MOTION><ECCENTRICITY>.0008351</ECCENTRICITY><INCLINATION>51.8650</INCLINATION><RA_OF_ASC_NODE>23.8496</RA_OF_ASC_NODE><ARG_OF_PERICENTER>149.2760</ARG_OF_PERICENTER><MEAN_ANOMALY>124.7264</MEAN_ANOMALY></meanElements><tleParameters><EPHEMERIS_TYPE>0</EPHEMERIS_TYPE><CLASSIFICATION_TYPE>U</CLASSIFICATION_TYPE><NORAD_CAT_ID>65777</NORAD_CAT_ID><ELEMENT_SET_NO>999</ELEMENT_SET_NO><REV_AT_EPOCH>298</REV_AT_EPOCH><BSTAR>.18743E-2</BSTAR><MEAN_MOTION_DOT>.64323E-3</MEAN_MOTION_DOT><MEAN_MOTION_DDOT>0</MEAN_MOTION_DDOT></tleParameters></data></segment></body></omm>
<omm id="CCSDS_OMM_VERS" version="2.0">
<header><CREATION_DATE/><ORIGINATOR/></header><body><segment><metadata><OBJECT_NAME>KUIPER-00165</OBJECT_NAME><OBJECT_ID>2025-217S</OBJECT_ID><CENTER_NAME>EARTH</CENTER_NAME><REF_FRAME>TEME</REF_FRAME><TIME_SYSTEM>UTC</TIME_SYSTEM><MEAN_ELEMENT_THEORY>SGP4</MEAN_ELEMENT_THEORY></metadata><data><meanElements><EPOCH>2025-10-07T16:00:03.000096</EPOCH><MEAN_MOTION>15.35975460</MEAN_MOTION><ECCENTRICITY>.0004452</ECCENTRICITY><INCLINATION>51.8732</INCLINATION><RA_OF_ASC_NODE>23.7395</RA_OF_ASC_NODE><ARG_OF_PERICENTER>110.3384</ARG_OF_PERICENTER><MEAN_ANOMALY>217.7836</MEAN_ANOMALY></meanElements><tleParameters><EPHEMERIS_TYPE>0</EPHEMERIS_TYPE><CLASSIFICATION_TYPE>U</CLASSIFICATION_TYPE><NORAD_CAT_ID>65778</NORAD_CAT_ID><ELEMENT_SET_NO>999</ELEMENT_SET_NO><REV_AT_EPOCH>275</REV_AT_EPOCH><BSTAR>.18439E-2</BSTAR><MEAN_MOTION_DOT>.65781E-3</MEAN_MOTION_DOT><MEAN_MOTION_DDOT>0</MEAN_MOTION_DDOT></tleParameters></data></segment></body></omm>
<omm id="CCSDS_OMM_VERS" version="2.0">
<header><CREATION_DATE/><ORIGINATOR/></header><body><segment><metadata><OBJECT_NAME>KUIPER-00166</OBJECT_NAME><OBJECT_ID>2025-217T</OBJECT_ID><CENTER_NAME>EARTH</CENTER_NAME><REF_FRAME>TEME</REF_FRAME><TIME_SYSTEM>UTC</TIME_SYSTEM><MEAN_ELEMENT_THEORY>SGP4</MEAN_ELEMENT_THEORY></metadata><data><meanElements><EPOCH>2025-10-07T16:00:03.000096</EPOCH><MEAN_MOTION>15.36284514</MEAN_MOTION><ECCENTRICITY>.0003664</ECCENTRICITY><INCLINATION>51.8742</INCLINATION><RA_OF_ASC_NODE>23.7109</RA_OF_ASC_NODE><ARG_OF_PERICENTER>94.0063</ARG_OF_PERICENTER><MEAN_ANOMALY>247.3950</MEAN_ANOMALY></meanElements><tleParameters><EPHEMERIS_TYPE>0</EPHEMERIS_TYPE><CLASSIFICATION_TYPE>U</CLASSIFICATION_TYPE><NORAD_CAT_ID>65779</NORAD_CAT_ID><ELEMENT_SET_NO>999</ELEMENT_SET_NO><REV_AT_EPOCH>305</REV_AT_EPOCH><BSTAR>.17914E-2</BSTAR><MEAN_MOTION_DOT>.64521E-3</MEAN_MOTION_DOT><MEAN_MOTION_DDOT>0</MEAN_MOTION_DDOT></tleParameters></data></segment></body></omm>

</ndm>
